[{"OBJECT_NAME":"STARLINK-4327","OBJECT_ID":"2022-077AN","EPOCH":"2026-03-09T22:36:46.173312","MEAN_MOTION":15.05648622,"ECCENTRICITY":0.00023609,"INCLINATION":97.6022,"RA_OF_ASC_NODE":251.4886,"ARG_OF_PERICENTER":90.4217,"MEAN_ANOMALY":269.728,"EPHEMERIS_TYPE":0,"CLASSIFICATION_TYPE":"U","NORAD_CAT_ID":53079,"ELEMENT_SET_NO":999,"REV_AT_EPOCH":20102,"BSTAR":0.00030420672,"MEAN_MOTION_DOT":4.331e-5,"MEAN_MOTION_DDOT":0},{"OBJECT_NAME":"RAPIDEYE 4","OBJECT_ID":"2008-040E","EPOCH":"2026-03-09T22:51:05.848992","MEAN_MOTION":15.03765217,"ECCENTRICITY":0.00096509,"INCLINATION":97.4015,"RA_OF_ASC_NODE":97.7474,"ARG_OF_PERICENTER":35.5595,"MEAN_ANOMALY":324.6273,"EPHEMERIS_TYPE":0,"CLASSIFICATION_TYPE":"U","NORAD_CAT_ID":33316,"ELEMENT_SET_NO":999,"REV_AT_EPOCH":95086,"BSTAR":0.00022327721,"MEAN_MOTION_DOT":3.01e-5,"MEAN_MOTION_DDOT":0}]
